SUOMI NPP               
1 37849U 11061A   26136.26930277  .00000031  00000+0  35626-4 0  9993
2 37849  98.7943  77.3662 0002790  68.7113 291.4361 14.19510204753916
YAOGAN-12               
1 37875U 11066B   26136.27398839  .00003003  00000+0  11879-3 0  9995
2 37875  97.1171 176.3484 0009264 350.4131   9.6930 15.26161556807177
BEIDOU-2 M4             
1 38251U 12018B   26135.90344955 -.00000052  00000+0  00000+0 0  9993
2 38251  55.6870 305.1797 0010980 281.2915  78.5653  1.86229577 95342
ARIRANG-3 (KOMPSAT-3)   
1 38338U 12025B   26136.28056708  .00000244  00000+0  57685-4 0  9993
2 38338  98.1160  94.2960 0004655 201.1792 158.9217 14.62176136746685
METOP-B                 
1 38771U 12049A   26136.30224857  .00000068  00000+0  50914-4 0  9997
2 38771  98.6525 188.4340 0003496  85.9588 274.1989 14.21423289708737
SJ-9A                   
1 38860U 12056A   26136.23510188  .00000811  00000+0  99746-4 0  9993
2 38860  97.6692 109.3487 0025739   6.2803 353.8730 14.85401109694846
COSMOS 2484 (RODNIK-S 6)
1 39059U 13001C   26136.27058564  .00000123  00000+0  81611-3 0  9991
2 39059  82.5025 241.7329 0027562 103.8114 256.6035 12.42938494604595
SARAL                   
1 39086U 13009A   26136.26786092  .00000047  00000+0  33360-4 0  9996
2 39086  98.5559 323.2393 0002482  46.4910 313.6480 14.32847665691034
STRAND-1                
1 39090U 13009E   26136.23864622  .00000179  00000+0  74614-4 0  9997
2 39090  98.3916 317.2609 0007996 334.1932  25.8855 14.37143213692473
BRITE-AUSTRIA           
1 39091U 13009F   26136.23780218  .00000106  00000+0  50563-4 0  9993
2 39091  98.3987 316.4658 0009733 342.4521  17.6328 14.36528521692465
GAOFEN-1                
1 39150U 13018A   26136.14458293 -.00000145  00000+0 -13512-4 0  9992
2 39150  97.9108 208.8610 0017348  14.3725 345.7975 14.76536027703511
NEE-01 PEGASO           
1 39151U 13018B   26136.17516207  .00001128  00000+0  11291-3 0  9997
2 39151  98.1181 279.2795 0011284 269.3037  90.6888 14.93491114705925
PROBA-V                 
1 39159U 13021A   26135.92864821  .00000033  00000+0  32583-4 0  9991
2 39159  98.3572 116.1314 0003334 213.6192 146.4777 14.23589781676527
ARIRANG-5 (KOMPSAT-5)   
1 39227U 13042A   26136.30853146  .00000728  00000+0  56358-4 0  9998
2 39227  97.6212 323.4574 0001948 220.2478 139.8604 15.04491636699067
GONETS-M 5              
1 39249U 13048A   26136.31867237 -.00000062  00000+0 -51462-3 0  9998
2 39249  82.4859   3.2535 0015729 284.6659  75.2676 12.42890550574923
GONETS-M 7              
1 39251U 13048C   26136.28221274  .00000046  00000+0  26338-3 0  9996
2 39251  82.4928   6.1815 0016560 286.0617  73.8639 12.42913734574877
FENGYUN 3C              
1 39260U 13052A   26136.24062259  .00000060  00000+0  51608-4 0  9998
2 39260  98.4964 111.5863 0015755 113.3840 246.8994 14.15747266654044
CASSIOPE                
1 39265U 13055A   26136.24864590  .00031868 -55665-6  36260-3 0  9995
2 39265  80.9133 105.4216 0300858 169.4815 191.2911 15.22719649662800
APRIZESAT 7             
1 39416U 13066A   26136.08641617  .00000896  00000+0  94349-4 0  9995
2 39416  97.7691  89.7735 0034854 319.8193  40.0449 14.91486373676445
ZACUBE-1 (TSHEPISOSAT)  
1 39417U 13066B   26136.01013166  .00003046  00000+0  23977-3 0  9999
2 39417  97.8121  98.1725 0041480   1.2359 358.8959 15.00925205675906
APRIZESAT 8             
1 39425U 13066K   26136.25893838  .00000699  00000+0  81630-4 0  9998
2 39425  97.8206  84.1780 0046846  32.6688 327.7411 14.87578929674929
