OBJECT_NAME,OBJECT_ID,EPOCH,MEAN_MOTION,ECCENTRICITY,INCLINATION,RA_OF_ASC_NODE,ARG_OF_PERICENTER,MEAN_ANOMALY,EPHEMERIS_TYPE,CLASSIFICATION_TYPE,NORAD_CAT_ID,ELEMENT_SET_NO,REV_AT_EPOCH,BSTAR,MEAN_MOTION_DOT,MEAN_MOTION_DDOT
SUOMI NPP,2011-061A,2026-05-16T06:27:47.759328,14.19510204,.00027906,98.7943,77.3662,68.7113,291.4361,0,U,37849,999,75391,.35626163E-4,.31E-6,0
YAOGAN-12,2011-066B,2026-05-16T06:34:32.596896,15.26161556,.00092646,97.1171,176.3484,350.4131,9.6930,0,U,37875,999,80717,.11879442E-3,.3003E-4,0
BEIDOU-2 M4,2012-018B,2026-05-15T21:40:58.041120,1.86229577,.00109803,55.6870,305.1797,281.2915,78.5653,0,U,38251,999,9534,0,-.52E-6,0
ARIRANG-3 (KOMPSAT-3),2012-025B,2026-05-16T06:44:00.995712,14.62176136,.00046553,98.1160,94.2960,201.1792,158.9217,0,U,38338,999,74668,.57684745E-4,.244E-5,0
METOP-B,2012-049A,2026-05-16T07:15:14.276448,14.21423289,.00034967,98.6525,188.4340,85.9588,274.1989,0,U,38771,999,70873,.50913713E-4,.68E-6,0
SJ-9A,2012-056A,2026-05-16T05:38:32.802432,14.85401109,.00257396,97.6692,109.3487,6.2803,353.8730,0,U,38860,999,69484,.99745868E-4,.811E-5,0
COSMOS 2484 (RODNIK-S 6),2013-001C,2026-05-16T06:29:38.599296,12.42938494,.00275629,82.5025,241.7329,103.8114,256.6035,0,U,39059,999,60459,.81610814E-3,.123E-5,0
SARAL,2013-009A,2026-05-16T06:25:43.183488,14.32847665,.00024822,98.5559,323.2393,46.4910,313.6480,0,U,39086,999,69103,.33360028E-4,.47E-6,0
STRAND-1,2013-009E,2026-05-16T05:43:39.033408,14.37143213,.0007996,98.3916,317.2609,334.1932,25.8855,0,U,39090,999,69247,.74614291E-4,.179E-5,0
BRITE-AUSTRIA,2013-009F,2026-05-16T05:42:26.108352,14.36528521,.00097333,98.3987,316.4658,342.4521,17.6328,0,U,39091,999,69246,.50562549E-4,.106E-5,0
GAOFEN-1,2013-018A,2026-05-16T03:28:11.965152,14.76536027,.00173486,97.9108,208.8610,14.3725,345.7975,0,U,39150,999,70351,-.13512139E-4,-.145E-5,0
NEE-01 PEGASO,2013-018B,2026-05-16T04:12:14.002848,14.93491114,.00112843,98.1181,279.2795,269.3037,90.6888,0,U,39151,999,70592,.11291435E-3,.1128E-4,0
PROBA-V,2013-021A,2026-05-15T22:17:15.205344,14.23589781,.00033347,98.3572,116.1314,213.6192,146.4777,0,U,39159,999,67652,.32583392E-4,.33E-6,0
ARIRANG-5 (KOMPSAT-5),2013-042A,2026-05-16T07:24:17.118144,15.04491636,.00019486,97.6212,323.4574,220.2478,139.8604,0,U,39227,999,69906,.56357637E-4,.728E-5,0
GONETS-M 5,2013-048A,2026-05-16T07:38:53.292768,12.42890550,.0015729,82.4859,3.2535,284.6659,75.2676,0,U,39249,999,57492,-.51461667E-3,-.62E-6,0
GONETS-M 7,2013-048C,2026-05-16T06:46:23.180736,12.42913734,.00165603,82.4928,6.1815,286.0617,73.8639,0,U,39251,999,57487,.26338382E-3,.46E-6,0
FENGYUN 3C,2013-052A,2026-05-16T05:46:29.791776,14.15747266,.00157558,98.4964,111.5863,113.3840,246.8994,0,U,39260,999,65404,.51608332E-4,.6E-6,0
CASSIOPE,2013-055A,2026-05-16T05:58:03.005760,15.22719649,.03008584,80.9133,105.4216,169.4815,191.2911,0,U,39265,999,66280,.36260057E-3,.31868E-3,-.556649E-6
APRIZESAT 7,2013-066A,2026-05-16T02:04:26.357088,14.91486373,.00348542,97.7691,89.7735,319.8193,40.0449,0,U,39416,999,67644,.94349334E-4,.896E-5,0
ZACUBE-1 (TSHEPISOSAT),2013-066B,2026-05-16T00:14:35.375424,15.00925205,.00414801,97.8121,98.1725,1.2359,358.8959,0,U,39417,999,67590,.23976676E-3,.3046E-4,0
APRIZESAT 8,2013-066K,2026-05-16T06:12:52.276032,14.87578929,.00468468,97.8206,84.1780,32.6688,327.7411,0,U,39425,999,67492,.8163005E-4,.699E-5,0
